start=new Date('2021-11-11T00:00:00.000Z').valueOf();
sats=[{"OBJECT_NAME":"STARLINK-1688","ELEMENT_SET_NO":"999","PERIOD":"95.592","MEAN_ANOMALY":"302.3374","NORAD_CAT_ID":"46371","INCLINATION":"53.0534","RCS_SIZE":"LARGE","SEMIMAJOR_AXIS":"6925.321","BSTAR":"0.00020176000000","FILE":"3211038","REF_FRAME":"TEME","CLASSIFICATION_TYPE":"U","TIME_SYSTEM":"UTC","GP_ID":"189423595","MEAN_MOTION_DOT":"0.00002726","PERIAPSIS":"545.933","CENTER_NAME":"EARTH","MEAN_MOTION_DDOT":"0.0000000000000","ECCENTRICITY":"0.00018100","ARG_OF_PERICENTER":"57.7790","OBJECT_TYPE":"PAYLOAD","REV_AT_EPOCH":"6638","TLE_LINE1":"1 46371U 20062AY  21314.24329721  .00002726  00000-0  20176-3 0  9998","SITE":"AFETR","APOAPSIS":"548.439","DECAY_DATE":null,"EPHEMERIS_TYPE":"0","RA_OF_ASC_NODE":"251.5275","COUNTRY_CODE":"US","MEAN_MOTION":"15.06408991","TLE_LINE2":"2 46371  53.0534 251.5275 0001810  57.7790 302.3374 15.06408991 66383","OBJECT_ID":"2020-062AY","EPOCH":"2021-11-10T05:50:20.878944","LAUNCH_DATE":"2020-09-03","MEAN_ELEMENT_THEORY":"SGP4"},{"ECCENTRICITY":"0.00018280","ARG_OF_PERICENTER":"69.0947","TIME_SYSTEM":"UTC","PERIAPSIS":"545.904","MEAN_MOTION_DOT":"0.00005673","CENTER_NAME":"EARTH","GP_ID":"189424345","MEAN_MOTION_DDOT":"0.0000000000000","BSTAR":"0.00039930000000","FILE":"3211038","CLASSIFICATION_TYPE":"U","REF_FRAME":"TEME","PERIOD":"95.591","ELEMENT_SET_NO":"999","OBJECT_NAME":"STARLINK-1689","MEAN_ANOMALY":"291.0238","RCS_SIZE":"LARGE","NORAD_CAT_ID":"46372","INCLINATION":"53.0530","SEMIMAJOR_AXIS":"6925.305","COUNTRY_CODE":"US","OBJECT_ID":"2020-062AZ","TLE_LINE2":"2 46372  53.0530 271.4771 0001828  69.0947 291.0238 15.06414131 66107","MEAN_MOTION":"15.06414131","LAUNCH_DATE":"2020-09-03","EPOCH":"2021-11-10T06:03:36.495072","MEAN_ELEMENT_THEORY":"SGP4","DECAY_DATE":null,"APOAPSIS":"548.436","EPHEMERIS_TYPE":"0","RA_OF_ASC_NODE":"271.4771","REV_AT_EPOCH":"6610","TLE_LINE1":"1 46372U 20062AZ  21314.25250573  .00005673  00000-0  39930-3 0  9990","OBJECT_TYPE":"PAYLOAD","SITE":"AFETR"},{"ECCENTRICITY":"0.00059210","ARG_OF_PERICENTER":"42.4685","TIME_SYSTEM":"UTC","GP_ID":"189422820","CENTER_NAME":"EARTH","PERIAPSIS":"543.068","MEAN_MOTION_DOT":"0.00003645","MEAN_MOTION_DDOT":"0.0000000000000","BSTAR":"0.00026340000000","FILE":"3211038","REF_FRAME":"TEME","CLASSIFICATION_TYPE":"U","OBJECT_NAME":"STARLINK-1711","PERIOD":"95.591","ELEMENT_SET_NO":"999","MEAN_ANOMALY":"317.6761","NORAD_CAT_ID":"46374","INCLINATION":"53.0532","RCS_SIZE":"LARGE","SEMIMAJOR_AXIS":"6925.303","COUNTRY_CODE":"US","OBJECT_ID":"2020-062BB","TLE_LINE2":"2 46374  53.0532 198.4420 0005921  42.4685 317.6761 15.06414740 67183","MEAN_MOTION":"15.06414740","EPOCH":"2021-11-10T22:18:55.728288","LAUNCH_DATE":"2020-09-03","MEAN_ELEMENT_THEORY":"SGP4","APOAPSIS":"551.269","DECAY_DATE":null,"EPHEMERIS_TYPE":"0","RA_OF_ASC_NODE":"198.4420","OBJECT_TYPE":"PAYLOAD","REV_AT_EPOCH":"6718","TLE_LINE1":"1 46374U 20062BB  21314.92981167  .00003645  00000-0  26340-3 0  9994","SITE":"AFETR"},{"COUNTRY_CODE":"US","TLE_LINE2":"2 46375  53.0523 223.3734 0001592  67.3639 292.7518 15.06413885 66838","OBJECT_ID":"2020-062BC","MEAN_MOTION":"15.06413885","EPOCH":"2021-11-10T22:39:29.083968","LAUNCH_DATE":"2020-09-03","MEAN_ELEMENT_THEORY":"SGP4","APOAPSIS":"548.274","DECAY_DATE":null,"EPHEMERIS_TYPE":"0","RA_OF_ASC_NODE":"223.3734","OBJECT_TYPE":"PAYLOAD","TLE_LINE1":"1 46375U 20062BC  21314.94408662  .00005455  00000-0  38470-3 0  9999","REV_AT_EPOCH":"6683","SITE":"AFETR","ECCENTRICITY":"0.00015920","ARG_OF_PERICENTER":"67.3639","TIME_SYSTEM":"UTC","GP_ID":"189423519","PERIAPSIS":"546.068","CENTER_NAME":"EARTH","MEAN_MOTION_DOT":"0.00005455","MEAN_MOTION_DDOT":"0.0000000000000","BSTAR":"0.00038470000000","FILE":"3211038","REF_FRAME":"TEME","CLASSIFICATION_TYPE":"U","OBJECT_NAME":"STARLINK-1724","ELEMENT_SET_NO":"999","PERIOD":"95.591","MEAN_ANOMALY":"292.7518","INCLINATION":"53.0523","NORAD_CAT_ID":"46375","RCS_SIZE":"LARGE","SEMIMAJOR_AXIS":"6925.306"},{"BSTAR":"-0.00004125200000","CLASSIFICATION_TYPE":"U","REF_FRAME":"TEME","FILE":"3211038","MEAN_ANOMALY":"283.3367","ELEMENT_SET_NO":"999","PERIOD":"95.591","OBJECT_NAME":"STARLINK-1742","SEMIMAJOR_AXIS":"6925.295","RCS_SIZE":"LARGE","INCLINATION":"53.0541","NORAD_CAT_ID":"46376","ECCENTRICITY":"0.00014020","ARG_OF_PERICENTER":"76.7778","TIME_SYSTEM":"UTC","MEAN_MOTION_DDOT":"0.0000000000000","PERIAPSIS":"546.189","MEAN_MOTION_DOT":"-0.00000896","CENTER_NAME":"EARTH","GP_ID":"189424095","EPHEMERIS_TYPE":"0","DECAY_DATE":null,"APOAPSIS":"548.131","RA_OF_ASC_NODE":"223.6118","SITE":"AFETR","REV_AT_EPOCH":"6682","TLE_LINE1":"1 46376U 20062BD  21314.89247211 -.00000896  00000-0 -41252-4 0  9994","OBJECT_TYPE":"PAYLOAD","TLE_LINE2":"2 46376  53.0541 223.6118 0001402  76.7778 283.3367 15.06417422 66824","OBJECT_ID":"2020-062BD","MEAN_MOTION":"15.06417422","COUNTRY_CODE":"US","MEAN_ELEMENT_THEORY":"SGP4","LAUNCH_DATE":"2020-09-03","EPOCH":"2021-11-10T21:25:09.590304"},{"MEAN_ANOMALY":"323.7276","OBJECT_NAME":"STARLINK-1751","ELEMENT_SET_NO":"999","PERIOD":"95.551","SEMIMAJOR_AXIS":"6923.349","INCLINATION":"53.0536","NORAD_CAT_ID":"46378","RCS_SIZE":"LARGE","BSTAR":"0.00582300000000","REF_FRAME":"TEME","CLASSIFICATION_TYPE":"U","FILE":"3211038","TIME_SYSTEM":"UTC","MEAN_MOTION_DDOT":"0.0000000000000","GP_ID":"189423846","PERIAPSIS":"543.774","MEAN_MOTION_DOT":"0.00089117","CENTER_NAME":"EARTH","ECCENTRICITY":"0.00020800","ARG_OF_PERICENTER":"36.3854","SITE":"AFETR","OBJECT_TYPE":"PAYLOAD","TLE_LINE1":"1 46378U 20062BF  21314.90292643  .00089117  00000-0  58230-2 0  9990","REV_AT_EPOCH":"6682","EPHEMERIS_TYPE":"0","APOAPSIS":"546.654","DECAY_DATE":null,"RA_OF_ASC_NODE":"223.5578","OBJECT_ID":"2020-062BF","TLE_LINE2":"2 46378  53.0536 223.5578 0002080  36.3854 323.7276 15.07052719 66822","MEAN_MOTION":"15.07052719","COUNTRY_CODE":"US","MEAN_ELEMENT_THEORY":"SGP4","EPOCH":"2021-11-10T21:40:12.843552","LAUNCH_DATE":"2020-09-03"},{"OBJECT_ID":"2020-062BH","TLE_LINE2":"2 46380  53.0532 250.2379 0001582  69.0928 291.0230 15.06398918 66424","MEAN_MOTION":"15.06398918","COUNTRY_CODE":"US","MEAN_ELEMENT_THEORY":"SGP4","EPOCH":"2021-11-10T12:39:01.496160","LAUNCH_DATE":"2020-09-03","EPHEMERIS_TYPE":"0","APOAPSIS":"548.312","DECAY_DATE":null,"RA_OF_ASC_NODE":"250.2379","SITE":"AFETR","OBJECT_TYPE":"PAYLOAD","REV_AT_EPOCH":"6642","TLE_LINE1":"1 46380U 20062BH  21314.52710065  .00002677  00000-0  19852-3 0  9998","ECCENTRICITY":"0.00015820","ARG_OF_PERICENTER":"69.0928","TIME_SYSTEM":"UTC","MEAN_MOTION_DDOT":"0.0000000000000","GP_ID":"189423320","PERIAPSIS":"546.121","MEAN_MOTION_DOT":"0.00002677","CENTER_NAME":"EARTH","BSTAR":"0.00019852000000","REF_FRAME":"TEME","CLASSIFICATION_TYPE":"U","FILE":"3211038","MEAN_ANOMALY":"291.0230","OBJECT_NAME":"STARLINK-1758","ELEMENT_SET_NO":"999","PERIOD":"95.592","SEMIMAJOR_AXIS":"6925.352","INCLINATION":"53.0532","NORAD_CAT_ID":"46380","RCS_SIZE":"LARGE"},{"ECCENTRICITY":"0.00015240","ARG_OF_PERICENTER":"69.9681","TIME_SYSTEM":"UTC","MEAN_MOTION_DDOT":"0.0000000000000","GP_ID":"189424019","CENTER_NAME":"EARTH","PERIAPSIS":"546.133","MEAN_MOTION_DOT":"0.00003707","BSTAR":"0.00026760000000","REF_FRAME":"TEME","CLASSIFICATION_TYPE":"U","FILE":"3211038","MEAN_ANOMALY":"290.1472","OBJECT_NAME":"STARLINK-1769","ELEMENT_SET_NO":"999","PERIOD":"95.592","SEMIMAJOR_AXIS":"6925.323","INCLINATION":"53.0538","NORAD_CAT_ID":"46382","RCS_SIZE":"LARGE","OBJECT_ID":"2020-062BK","TLE_LINE2":"2 46382  53.0538 223.5490 0001524  69.9681 290.1472 15.06408358 66833","MEAN_MOTION":"15.06408358","COUNTRY_CODE":"US","MEAN_ELEMENT_THEORY":"SGP4","EPOCH":"2021-11-10T21:46:23.151360","LAUNCH_DATE":"2020-09-03","EPHEMERIS_TYPE":"0","APOAPSIS":"548.243","DECAY_DATE":null,"RA_OF_ASC_NODE":"223.5490","SITE":"AFETR","OBJECT_TYPE":"PAYLOAD","REV_AT_EPOCH":"6683","TLE_LINE1":"1 46382U 20062BK  21314.90721240  .00003707  00000-0  26760-3 0  9990"},{"MEAN_ELEMENT_THEORY":"SGP4","EPOCH":"2021-11-10T08:42:49.939200","LAUNCH_DATE":"2020-09-03","TLE_LINE2":"2 46383  53.0548 270.9839 0001632  64.8255 295.2904 15.06403054 66114","OBJECT_ID":"2020-062BL","MEAN_MOTION":"15.06403054","COUNTRY_CODE":"US","RA_OF_ASC_NODE":"270.9839","EPHEMERIS_TYPE":"0","APOAPSIS":"548.334","DECAY_DATE":null,"SITE":"AFETR","OBJECT_TYPE":"PAYLOAD","TLE_LINE1":"1 46383U 20062BL  21314.36307800  .00002406  00000-0  18038-3 0  9997","REV_AT_EPOCH":"6611","ARG_OF_PERICENTER":"64.8255","ECCENTRICITY":"0.00016320","MEAN_MOTION_DDOT":"0.0000000000000","GP_ID":"189423596","CENTER_NAME":"EARTH","PERIAPSIS":"546.074","MEAN_MOTION_DOT":"0.00002406","TIME_SYSTEM":"UTC","REF_FRAME":"TEME","CLASSIFICATION_TYPE":"U","FILE":"3211038","BSTAR":"0.00018038000000","SEMIMAJOR_AXIS":"6925.339","NORAD_CAT_ID":"46383","INCLINATION":"53.0548","RCS_SIZE":"LARGE","MEAN_ANOMALY":"295.2904","OBJECT_NAME":"STARLINK-1770","ELEMENT_SET_NO":"999","PERIOD":"95.592"},{"RCS_SIZE":"LARGE","INCLINATION":"53.0529","NORAD_CAT_ID":"46384","SEMIMAJOR_AXIS":"6925.273","ELEMENT_SET_NO":"999","PERIOD":"95.591","OBJECT_NAME":"STARLINK-1771","MEAN_ANOMALY":"298.8094","FILE":"3210554","CLASSIFICATION_TYPE":"U","REF_FRAME":"TEME","BSTAR":"0.00028317000000","PERIAPSIS":"545.991","MEAN_MOTION_DOT":"0.00003941","CENTER_NAME":"EARTH","GP_ID":"189368928","MEAN_MOTION_DDOT":"0.0000000000000","TIME_SYSTEM":"UTC","ARG_OF_PERICENTER":"61.3061","ECCENTRICITY":"0.00016560","REV_AT_EPOCH":"6627","TLE_LINE1":"1 46384U 20062BM  21314.23408388  .00003941  00000-0  28317-3 0  9993","OBJECT_TYPE":"PAYLOAD","SITE":"AFETR","RA_OF_ASC_NODE":"271.5477","DECAY_DATE":null,"APOAPSIS":"548.285","EPHEMERIS_TYPE":"0","LAUNCH_DATE":"2020-09-03","EPOCH":"2021-11-10T05:37:04.847232","MEAN_ELEMENT_THEORY":"SGP4","COUNTRY_CODE":"US","OBJECT_ID":"2020-062BM","TLE_LINE2":"2 46384  53.0529 271.5477 0001656  61.3061 298.8094 15.06424752 66276","MEAN_MOTION":"15.06424752"}];
